{
  "type": "FeatureCollection",
  "features": [
    {
      "type": "Feature",
      "properties": {},
      "geometry": {
        "type": "Polygon",
        "coordinates": [
          [
            [
              20.8519173,
              52.1997175
            ],
            [
              20.8569543,
              52.1904063
            ],
            [
              20.8671364,
              52.1907777
            ],
            [
              20.8671664,
              52.1824966
            ],
            [
              20.897726,
              52.1825408
            ],
            [
              20.8992741,
              52.1841297
            ],
            [
              20.9147704,
              52.1858422
            ],
            [
              20.9112234,
              52.1795565
            ],
            [
              20.9191601,
              52.1764686
            ],
            [
              20.9191591,
              52.171081
            ],
            [
              20.9239422,
              52.1662793
            ],
            [
              20.9378129,
              52.1600841
            ],
            [
              20.9537622,
              52.1561386
            ],
            [
              20.9537703,
              52.1529897
            ],
            [
              20.9614259,
              52.1485666
            ],
            [
              20.9786461,
              52.143138
            ],
            [
              20.9850342,
              52.1390784
            ],
            [
              20.980106,
              52.1326688
            ],
            [
              20.9798896,
              52.1280748
            ],
            [
              20.987241,
              52.115829
            ],
            [
              20.9844793,
              52.1056199
            ],
            [
              20.9919232,
              52.1034578
            ],
            [
              21.0186851,
              52.1037181
            ],
            [
              21.0186418,
              52.1060485
            ],
            [
              21.0351987,
              52.1067653
            ],
            [
              21.0437152,
              52.1129627
            ],
            [
              21.0504527,
              52.109153
            ],
            [
              21.060349,
              52.106288
            ],
            [
              21.0787528,
              52.0981184
            ],
            [
              21.1100967,
              52.1131685
            ],
            [
              21.1162309,
              52.1188673
            ],
            [
              21.1218869,
              52.1197125
            ],
            [
              21.1295637,
              52.127181
            ],
            [
              21.1360098,
              52.1278725
            ],
            [
              21.1479425,
              52.1385145
            ],
            [
              21.1540693,
              52.140492
            ],
            [
              21.1546934,
              52.1435998
            ],
            [
              21.1714229,
              52.1454415
            ],
            [
              21.1758534,
              52.1484592
            ],
            [
              21.2147367,
              52.1521748
            ],
            [
              21.2347234,
              52.1589097
            ],
            [
              21.2487517,
              52.153036
            ],
            [
              21.2557405,
              52.1471717
            ],
            [
              21.2625793,
              52.1531019
            ],
            [
              21.25405,
              52.1573786
            ],
            [
              21.2603685,
              52.1620232
            ],
            [
              21.2631138,
              52.1673823
            ],
            [
              21.2676862,
              52.1674483
            ],
            [
              21.2700372,
              52.1739435
            ],
            [
              21.259765,
              52.1825552
            ],
            [
              21.2653835,
              52.1860007
            ],
            [
              21.2402289,
              52.19588
            ],
            [
              21.2457331,
              52.2008629
            ],
            [
              21.2509495,
              52.2024936
            ],
            [
              21.2490897,
              52.2069595
            ],
            [
              21.2541429,
              52.2094346
            ],
            [
              21.2617274,
              52.2100733
            ],
            [
              21.2505001,
              52.2222358
            ],
            [
              21.2504281,
              52.2319276
            ],
            [
              21.2487816,
              52.2366022
            ],
            [
              21.2394668,
              52.236256
            ],
            [
              21.2379493,
              52.2450274
            ],
            [
              21.2537169,
              52.2457622
            ],
            [
              21.2504688,
              52.2626919
            ],
            [
              21.1904832,
              52.2561751
            ],
            [
              21.1842894,
              52.2599215
            ],
            [
              21.1849832,
              52.2662504
            ],
            [
              21.171183,
              52.2773209
            ],
            [
              21.1724498,
              52.2867604
            ],
            [
              21.1692161,
              52.2911062
            ],
            [
              21.1643189,
              52.2897155
            ],
            [
              21.1614918,
              52.2856786
            ],
            [
              21.1490504,
              52.2793525
            ],
            [
              21.1050091,
              52.2739945
            ],
            [
              21.098925,
              52.2864846
            ],
            [
              21.0952012,
              52.2881613
            ],
            [
              21.0877959,
              52.2955571
            ],
            [
              21.0855129,
              52.3032476
            ],
            [
              21.077784,
              52.3219659
            ],
            [
              21.0895164,
              52.3237659
            ],
            [
              21.082453,
              52.3373499
            ],
            [
              21.0808788,
              52.3431249
            ],
            [
              21.0858974,
              52.3435134
            ],
            [
              21.0816998,
              52.3541398
            ],
            [
              21.0786595,
              52.3536633
            ],
            [
              21.0738087,
              52.3672883
            ],
            [
              21.063705,
              52.3655857
            ],
            [
              21.0606487,
              52.3625502
            ],
            [
              21.044568,
              52.3640013
            ],
            [
              21.030674,
              52.3616041
            ],
            [
              21.0252516,
              52.3632491
            ],
            [
              21.0233445,
              52.3574076
            ],
            [
              21.0094879,
              52.3567963
            ],
            [
              21.0056654,
              52.3641038
            ],
            [
              20.994668,
              52.3618295
            ],
            [
              20.9919343,
              52.362774
            ],
            [
              20.9781299,
              52.3589788
            ],
            [
              20.9712735,
              52.3589815
            ],
            [
              20.9661016,
              52.3681531
            ],
            [
              20.9542357,
              52.3678606
            ],
            [
              20.9436208,
              52.3663596
            ],
            [
              20.9392904,
              52.3617696
            ],
            [
              20.9339728,
              52.3597683
            ],
            [
              20.924082,
              52.3595777
            ],
            [
              20.9229716,
              52.3570414
            ],
            [
              20.912429,
              52.3529758
            ],
            [
              20.9237163,
              52.3436611
            ],
            [
              20.9258335,
              52.33697
            ],
            [
              20.9251225,
              52.3294304
            ],
            [
              20.922058,
              52.3237348
            ],
            [
              20.9130704,
              52.3218376
            ],
            [
              20.9105485,
              52.3240963
            ],
            [
              20.8949529,
              52.3212693
            ],
            [
              20.8896587,
              52.3139643
            ],
            [
              20.878329,
              52.3120551
            ],
            [
              20.8796346,
              52.3082546
            ],
            [
              20.8757949,
              52.2986579
            ],
            [
              20.877143,
              52.2945526
            ],
            [
              20.8757562,
              52.2804884
            ],
            [
              20.8811709,
              52.2796067
            ],
            [
              20.8787189,
              52.265149
            ],
            [
              20.863806,
              52.2500165
            ],
            [
              20.8909828,
              52.2469658
            ],
            [
              20.8940168,
              52.2437001
            ],
            [
              20.8895133,
              52.231999
            ],
            [
              20.8797319,
              52.2320224
            ],
            [
              20.8731013,
              52.2290841
            ],
            [
              20.8752802,
              52.2248027
            ],
            [
              20.8746203,
              52.2166596
            ],
            [
              20.8708993,
              52.2088535
            ],
            [
              20.8561577,
              52.206423
            ],
            [
              20.8519173,
              52.1997175
            ]
          ]
        ]
      }
    }
  ]
}
